{
  "type": "FeatureCollection",
  "features": [
    {
      "type": "Feature",
      "properties": {
        "norad_id": 41330,
        "name": "COSMOS 2514 (751)",
        "group": "glo-ops",
        "lat": -23.269584979784035,
        "lon": 150.4222818965858,
        "alt_km": 19104.734326677568,
        "timestamp": "2025-12-26T09:30:53.898833+00:00",
        "meta_object_name": "COSMOS 2514 (751)",
        "meta_object_id": "2016-008A",
        "meta_epoch": "2025-12-26T03:04:27.973056",
        "meta_mean_motion": 2.13102553,
        "meta_eccentricity": 0.001154,
        "meta_inclination": 65.126,
        "meta_ra_of_asc_node": 318.9457,
        "meta_arg_of_pericenter": 220.0269,
        "meta_mean_anomaly": 139.8925,
        "meta_ephemeris_type": 0,
        "meta_classification_type": "U",
        "meta_norad_cat_id": 41330,
        "meta_element_set_no": 999,
        "meta_rev_at_epoch": 7693,
        "meta_bstar": 0,
        "meta_mean_motion_dot": -3.4e-07,
        "meta_mean_motion_ddot": 0,
        "tle_line1": "1 41330U 16008A   25360.12810154 -.00000034  00000+0  00000+0 0  9990",
        "tle_line2": "2 41330  65.1260 318.9457 0011540 220.0269 139.8925  2.13102553 76936"
      },
      "geometry": {
        "type": "Point",
        "coordinates": [
          150.4222818965858,
          -23.269584979784035
        ]
      }
    },
    {
      "type": "Feature",
      "properties": {
        "norad_id": 42939,
        "name": "COSMOS 2522 (752)",
        "group": "glo-ops",
        "lat": -26.76325857346349,
        "lon": -176.43760511088647,
        "alt_km": 19138.241197340376,
        "timestamp": "2025-12-26T09:30:53.898845+00:00",
        "meta_object_name": "COSMOS 2522 (752)",
        "meta_object_id": "2017-055A",
        "meta_epoch": "2025-12-25T23:11:37.074048",
        "meta_mean_motion": 2.13102023,
        "meta_eccentricity": 0.0006278,
        "meta_inclination": 64.0768,
        "meta_ra_of_asc_node": 197.7784,
        "meta_arg_of_pericenter": 223.1458,
        "meta_mean_anomaly": 136.8589,
        "meta_ephemeris_type": 0,
        "meta_classification_type": "U",
        "meta_norad_cat_id": 42939,
        "meta_element_set_no": 999,
        "meta_rev_at_epoch": 6428,
        "meta_bstar": 0,
        "meta_mean_motion_dot": 1.1e-06,
        "meta_mean_motion_ddot": 0,
        "tle_line1": "1 42939U 17055A   25359.96640132  .00000110  00000+0  00000+0 0  9990",
        "tle_line2": "2 42939  64.0768 197.7784 0006278 223.1458 136.8589  2.13102023 64285"
      },
      "geometry": {
        "type": "Point",
        "coordinates": [
          -176.43760511088647,
          -26.76325857346349
        ]
      }
    },
    {
      "type": "Feature",
      "properties": {
        "norad_id": 43508,
        "name": "COSMOS 2527 (756)",
        "group": "glo-ops",
        "lat": -0.0696588007265047,
        "lon": 79.6550748075717,
        "alt_km": 19145.74603225321,
        "timestamp": "2025-12-26T09:30:53.898856+00:00",
        "meta_object_name": "COSMOS 2527 (756)",
        "meta_object_id": "2018-053A",
        "meta_epoch": "2025-12-25T22:15:18.516960",
        "meta_mean_motion": 2.13102285,
        "meta_eccentricity": 0.0009128,
        "meta_inclination": 65.4787,
        "meta_ra_of_asc_node": 79.6912,
        "meta_arg_of_pericenter": 228.9036,
        "meta_mean_anomaly": 131.0649,
        "meta_ephemeris_type": 0,
        "meta_classification_type": "U",
        "meta_norad_cat_id": 43508,
        "meta_element_set_no": 999,
        "meta_rev_at_epoch": 5858,
        "meta_bstar": 0,
        "meta_mean_motion_dot": -3e-08,
        "meta_mean_motion_ddot": 0,
        "tle_line1": "1 43508U 18053A   25359.92729765 -.00000003  00000+0  00000+0 0  9990",
        "tle_line2": "2 43508  65.4787  79.6912 0009128 228.9036 131.0649  2.13102285 58587"
      },
      "geometry": {
        "type": "Point",
        "coordinates": [
          79.6550748075717,
          -0.0696588007265047
        ]
      }
    },
    {
      "type": "Feature",
      "properties": {
        "norad_id": 43687,
        "name": "COSMOS 2529 (757)",
        "group": "glo-ops",
        "lat": -60.3579218968545,
        "lon": 140.55722223351725,
        "alt_km": 19121.28229747587,
        "timestamp": "2025-12-26T09:30:53.898868+00:00",
        "meta_object_name": "COSMOS 2529 (757)",
        "meta_object_id": "2018-086A",
        "meta_epoch": "2025-12-23T05:01:04.327104",
        "meta_mean_motion": 2.13102131,
        "meta_eccentricity": 0.0006897,
        "meta_inclination": 64.2927,
        "meta_ra_of_asc_node": 198.5346,
        "meta_arg_of_pericenter": 253.659,
        "meta_mean_anomaly": 106.3281,
        "meta_ephemeris_type": 0,
        "meta_classification_type": "U",
        "meta_norad_cat_id": 43687,
        "meta_element_set_no": 999,
        "meta_rev_at_epoch": 5553,
        "meta_bstar": 0,
        "meta_mean_motion_dot": 9.5e-07,
        "meta_mean_motion_ddot": 0,
        "tle_line1": "1 43687U 18086A   25357.20907786  .00000095  00000+0  00000+0 0  9994",
        "tle_line2": "2 43687  64.2927 198.5346 0006897 253.6590 106.3281  2.13102131 55539"
      },
      "geometry": {
        "type": "Point",
        "coordinates": [
          140.55722223351725,
          -60.3579218968545
        ]
      }
    },
    {
      "type": "Feature",
      "properties": {
        "norad_id": 44299,
        "name": "COSMOS 2534 (758)",
        "group": "glo-ops",
        "lat": 51.09803319369528,
        "lon": -125.03405812447022,
        "alt_km": 19139.843194181987,
        "timestamp": "2025-12-26T09:30:53.898880+00:00",
        "meta_object_name": "COSMOS 2534 (758)",
        "meta_object_id": "2019-030A",
        "meta_epoch": "2025-12-26T02:10:04.232064",
        "meta_mean_motion": 2.13102148,
        "meta_eccentricity": 0.0008616,
        "meta_inclination": 64.3664,
        "meta_ra_of_asc_node": 198.4428,
        "meta_arg_of_pericenter": 283.8414,
        "meta_mean_anomaly": 260.9701,
        "meta_ephemeris_type": 0,
        "meta_classification_type": "U",
        "meta_norad_cat_id": 44299,
        "meta_element_set_no": 999,
        "meta_rev_at_epoch": 5123,
        "meta_bstar": 0,
        "meta_mean_motion_dot": 1.1e-06,
        "meta_mean_motion_ddot": 0,
        "tle_line1": "1 44299U 19030A   25360.09032676  .00000110  00000+0  00000+0 0  9990",
        "tle_line2": "2 44299  64.3664 198.4428 0008616 283.8414 260.9701  2.13102148 51234"
      },
      "geometry": {
        "type": "Point",
        "coordinates": [
          -125.03405812447022,
          51.09803319369528
        ]
      }
    },
    {
      "type": "Feature",
      "properties": {
        "norad_id": 44850,
        "name": "COSMOS 2544 (759)",
        "group": "glo-ops",
        "lat": 37.82412429712455,
        "lon": 100.24973938599112,
        "alt_km": 19157.952792695112,
        "timestamp": "2025-12-26T09:30:53.898891+00:00",
        "meta_object_name": "COSMOS 2544 (759)",
        "meta_object_id": "2019-088A",
        "meta_epoch": "2025-12-25T20:55:29.447040",
        "meta_mean_motion": 2.13102067,
        "meta_eccentricity": 0.0014429,
        "meta_inclination": 65.4663,
        "meta_ra_of_asc_node": 79.5196,
        "meta_arg_of_pericenter": 250.7311,
        "meta_mean_anomaly": 109.1604,
        "meta_ephemeris_type": 0,
        "meta_classification_type": "U",
        "meta_norad_cat_id": 44850,
        "meta_element_set_no": 999,
        "meta_rev_at_epoch": 4702,
        "meta_bstar": 0,
        "meta_mean_motion_dot": -3e-08,
        "meta_mean_motion_ddot": 0,
        "tle_line1": "1 44850U 19088A   25359.87186860 -.00000003  00000+0  00000+0 0  9997",
        "tle_line2": "2 44850  65.4663  79.5196 0014429 250.7311 109.1604  2.13102067 47025"
      },
      "geometry": {
        "type": "Point",
        "coordinates": [
          100.24973938599112,
          37.82412429712455
        ]
      }
    },
    {
      "type": "Feature",
      "properties": {
        "norad_id": 45358,
        "name": "COSMOS 2545 (760)",
        "group": "glo-ops",
        "lat": -59.23382621446359,
        "lon": -168.15253656900077,
        "alt_km": 19107.44745425463,
        "timestamp": "2025-12-26T09:30:53.898902+00:00",
        "meta_object_name": "COSMOS 2545 (760)",
        "meta_object_id": "2020-018A",
        "meta_epoch": "2025-12-26T01:37:18.326208",
        "meta_mean_motion": 2.13102641,
        "meta_eccentricity": 0.0011272,
        "meta_inclination": 64.4616,
        "meta_ra_of_asc_node": 318.5027,
        "meta_arg_of_pericenter": 250.7624,
        "meta_mean_anomaly": 109.1203,
        "meta_ephemeris_type": 0,
        "meta_classification_type": "U",
        "meta_norad_cat_id": 45358,
        "meta_element_set_no": 999,
        "meta_rev_at_epoch": 4497,
        "meta_bstar": 0,
        "meta_mean_motion_dot": -3.5e-07,
        "meta_mean_motion_ddot": 0,
        "tle_line1": "1 45358U 20018A   25360.06757322 -.00000035  00000+0  00000+0 0  9991",
        "tle_line2": "2 45358  64.4616 318.5027 0011272 250.7624 109.1203  2.13102641 44979"
      },
      "geometry": {
        "type": "Point",
        "coordinates": [
          -168.15253656900077,
          -59.23382621446359
        ]
      }
    }
  ]
}